SL-8 R/B                
1 08459U 75112B   17345.86889083  .00000042  00000-0  23059-4 0  9991
2 08459  74.0596 145.8786 0017141 271.3262  88.5927 14.36767226199704
